{
    "flowers": [{
            "id": 1,
            "commonName": "windflower",
            "color": "white"
        },
        {
            "id": 2,
            "commonName": "tulip",
            "color": "red"
        },
        {
            "id": 3,
            "commonName": "rose",
            "color": "pink"
        },
        {
            "id": 4,
            "commonName": "hyacinth",
            "color": "purple"
        },
        {
            "id": 5,
            "commonName": "daffodil",
            "color": "yellow"
        }
    ],
    "retailers": [{
            "id": 1,
            "name": "Flower Power",
            "city": "Nashville",
            "state": "TN",
            "address": "5555 Blue St",
            "zip": "37555",
            "distributorId": 1
        },
        {
            "id": 2,
            "name": "Corner Flowers",
            "city": "Knoxville",
            "state": "TN",
            "address": "222 Green Ave",
            "zip": "37222",
            "distributorId": 2
        },
        {
            "id": 3,
            "name": "Bob's Flower Shop",
            "city": "Franklin",
            "state": "TN",
            "address": "777 Red Ave",
            "zip": "37566",
            "distributorId": 3
        },
        {
            "id": 4,
            "name": "Tato 'n Flowers",
            "city": "Atlanta",
            "state": "GA",
            "address": "4444 Peach St",
            "zip": "33000",
            "distributorId": 1
        },
        {
            "id": 5,
            "name": "Bloom's",
            "city": "Memphis",
            "state": "TN",
            "address": "8888 Violet Blvd",
            "zip": "37999",
            "distributorId": 3
        }
    ],
    "distributors": [{
            "id": 1,
            "name": "Cumberland Flower Distribution",
            "city": "Nashville",
            "state": "TN",
            "address": "3423 Orange Road",
            "zip": "37555"
        },
        {
            "id": 2,
            "name": "Smokey Mountain Flower Distribution",
            "city": "Knoxville",
            "state": "TN",
            "address": "1234 Slate St",
            "zip": "37223"
        },
        {
            "id": 3,
            "name": "Magenta Flower Distrubution",
            "city": "Jackson",
            "state": "TN",
            "address": "6544 Purple Road",
            "zip": "37345"
        }
    ]
}